MTI                     
1 26102U 00014A   20137.91143903  .00003047  00000-0  46001-4 0  9998
2 26102  97.5091  18.5267 0007884 357.1537   2.9598 15.55592296119611
CFESAT                  
1 30777U 07006F   20138.16264208  .00001451  00000-0  41170-4 0  9998
2 30777  35.4237 154.5830 0005861 266.9323  93.0733 15.36572808731648
SPIRALE A               
1 33751U 09008C   20137.83922812  .00000072  00000-0  40673-3 0  9996
2 33751   2.0278 242.9605 5378155 273.6522  29.5218  4.58739756159836
SPIRALE B               
1 33752U 09008D   20137.76147741  .00001815  00000-0  38832-3 0  9999
2 33752   1.8212 161.6258 6918588  63.1938 350.2202  2.75708764103879
SAPPHIRE                
1 39088U 13009C   20138.22976281 -.00000003  00000-0  14175-4 0  9998
2 39088  98.4726 340.2514 0011866  24.1449 336.0290 14.34208249378009
